OBJECT_NAME,OBJECT_ID,EPOCH,MEAN_MOTION,ECCENTRICITY,INCLINATION,RA_OF_ASC_NODE,ARG_OF_PERICENTER,MEAN_ANOMALY,EPHEMERIS_TYPE,CLASSIFICATION_TYPE,NORAD_CAT_ID,ELEMENT_SET_NO,REV_AT_EPOCH,BSTAR,MEAN_MOTION_DOT,MEAN_MOTION_DDOT
H-2A R/B,2006-002B,2026-06-18T12:06:42.364800,15.18074418,.00495983,98.2570,325.4523,257.6803,101.8873,0,U,28932,999,10972,.27581074E-3,.5718E-4,0
RESURS-DK 1,2006-021A,2026-06-18T14:55:26.658912,15.13222982,.00068853,69.9330,335.8394,291.4308,68.6124,0,U,29228,999,10279,.99851132E-4,.167E-4,0
CZ-4B R/B,2006-046C,2026-06-18T08:58:00.538176,15.17790883,.00309658,97.5450,213.9772,278.4211,81.3513,0,U,29507,999,7531,.14708345E-3,.2937E-4,0
CZ-2C R/B,2007-010B,2026-06-18T12:56:39.214464,14.20276404,.00589364,98.4101,277.8240,2.1920,357.9505,0,U,31114,999,99403,.47569308E-4,.62E-6,0
COSMOS 2428,2007-029A,2026-06-18T11:43:53.273856,14.12927954,.00071324,70.9369,351.7446,132.4634,227.7091,0,U,31792,999,97833,-.32064077E-4,-.108E-5,0
SL-16 R/B,2007-029B,2026-06-18T08:59:26.527776,14.14855435,.00023457,70.9769,320.7316,261.9313,121.3166,0,U,31793,999,97961,.54010462E-4,.56E-6,0
KORONAS-FOTON,2009-003A,2026-06-18T10:30:39.697344,15.45741559,.00118112,82.4288,170.9548,143.5150,216.6906,0,U,33504,999,96129,.16699713E-3,.8132E-4,0
CZ-2C R/B,2011-030B,2026-06-18T14:46:08.399136,14.81474549,.00529505,97.8655,124.9757,23.3999,149.4317,0,U,37731,999,80503,.13416298E-3,.1021E-4,0
H-2A R/B,2012-025E,2026-06-18T11:52:37.146432,14.95726587,.00435361,98.4833,144.7483,345.0147,14.9779,0,U,38341,999,76328,.18841295E-3,.2067E-4,0
SHIJIAN-16 (SJ-16),2013-057A,2026-06-18T13:55:07.069152,14.92606262,.00167436,74.9726,354.0447,227.5959,132.3814,0,U,39358,999,68655,.35684092E-4,.338E-5,0
SL-4 R/B,2014-021B,2026-06-18T13:18:25.885728,15.41978904,.00911812,51.6038,204.0725,110.9429,250.1344,0,U,39679,999,67182,.17389146E-3,.8282E-4,0
ALOS-2,2014-029A,2026-06-18T13:25:37.418304,14.79472986,.00016588,97.9226,266.7032,90.7575,269.3827,0,U,39766,999,65178,.16787704E-3,.1203E-4,0
YAOGAN-29,2015-069A,2026-06-18T14:16:16.870080,14.83088137,.00025935,98.0020,198.2301,51.9801,308.1646,0,U,41038,999,57083,.80610858E-4,.602E-5,0
ASTRO-H (HITOMI),2016-012A,2026-06-18T10:07:35.606496,15.10515073,.00097997,30.9998,66.2124,266.0265,93.9253,0,U,41337,999,56747,.11518604E-3,.2043E-4,0
HXMT (HUIYAN),2017-034A,2026-06-18T12:22:36.079968,15.18483181,.00307529,43.0125,175.6434,155.7332,204.4972,0,U,42758,999,49786,.1091559E-3,.2071E-4,0
SAOCOM 1A,2018-076A,2026-06-18T14:54:38.039040,14.82150774,.00015816,97.8877,356.3483,80.5158,279.6233,0,U,43641,999,41631,.87862394E-4,.647E-5,0
H-2A R/B,2018-084L,2026-06-18T14:49:27.590880,15.45200242,.00233553,98.8568,48.8197,35.8233,324.4572,0,U,43682,999,42134,.34006986E-3,.16203E-3,0
SAOCOM 1B,2020-059A,2026-06-18T15:39:29.886336,14.82145186,.00015709,97.8880,355.4739,83.2664,276.8728,0,U,46265,999,31370,-.33974534E-4,-.323E-5,0
CSS (TIANHE),2021-035A,2026-06-18T13:50:23.178624,15.60863218,.0007383,41.4698,313.5456,89.2734,270.8951,0,U,48274,999,29338,.21350369E-3,.18077E-3,0
COSMOS 2550,2021-056A,2026-06-17T22:29:15.459936,15.33847751,.00083421,67.1435,97.6381,268.6108,91.4090,0,U,48865,999,27883,.21058896E-3,.6747E-4,0
CZ-2C R/B,2022-058K,2026-06-18T07:54:48.898368,15.61926706,.00324612,50.1842,157.5724,272.7164,87.0094,0,U,52794,999,22582,.35492671E-3,.31967E-3,0
CZ-2C R/B,2022-132E,2026-06-18T11:45:01.313856,15.71620785,.00159474,97.2898,176.5717,80.1262,280.1801,0,U,54039,999,20615,.37493316E-3,.48548E-3,0
GSLV R/B,2022-138AN,2026-06-17T22:04:28.873632,14.97260846,.00229853,87.3808,132.7384,141.1738,219.1150,0,U,54149,999,19892,.19356429E-3,.2282E-4,0
XRISM,2023-137A,2026-06-18T12:15:11.537280,15.12476157,.00079536,31.0031,351.0296,336.9213,23.1068,0,U,57800,999,15306,.21468911E-3,.3928E-4,0
ACS3,2024-077B,2026-06-18T11:56:22.858656,13.94109503,.0078376,97.1682,87.9938,62.7852,298.1274,0,U,59588,999,10822,.24428034E-1,.33305E-3,0
CZ-8A R/B,2025-231K,2026-06-18T07:26:03.786720,14.30155190,.01164867,50.0055,34.5401,227.9599,131.1358,0,U,66004,999,3510,.51150388E-4,-.2E-6,0
SZ-21 MODULE,2025-246C,2026-06-18T10:04:01.553952,15.76496050,.00065457,41.4747,299.6525,354.9385,5.1392,0,U,66515,999,3393,.23744974E-3,.38742E-3,0
